[{"OBJECT_NAME":"STARLINK-34978","OBJECT_ID":"2025-194B","EPOCH":"2026-03-09T13:47:55.712832","MEAN_MOTION":15.05648422,"ECCENTRICITY":0.000242,"INCLINATION":97.6018,"RA_OF_ASC_NODE":284.3301,"ARG_OF_PERICENTER":75.6607,"MEAN_ANOMALY":284.4889,"EPHEMERIS_TYPE":0,"CLASSIFICATION_TYPE":"U","NORAD_CAT_ID":65435,"ELEMENT_SET_NO":999,"REV_AT_EPOCH":2963,"BSTAR":0.00024896,"MEAN_MOTION_DOT":3.533e-5,"MEAN_MOTION_DDOT":0},{"OBJECT_NAME":"HELIOS 1A","OBJECT_ID":"1995-033A","EPOCH":"2026-03-09T15:20:38.403168","MEAN_MOTION":15.05208405,"ECCENTRICITY":0.0012543,"INCLINATION":98.2085,"RA_OF_ASC_NODE":312.7113,"ARG_OF_PERICENTER":11.1866,"MEAN_ANOMALY":348.9636,"EPHEMERIS_TYPE":0,"CLASSIFICATION_TYPE":"U","NORAD_CAT_ID":23605,"ELEMENT_SET_NO":999,"REV_AT_EPOCH":65318,"BSTAR":0.00025897,"MEAN_MOTION_DOT":3.631e-5,"MEAN_MOTION_DDOT":0}]
